NORAD_CAT_ID,OBJECT_NAME,OBJECT_TYPE,EPOCH,MEAN_MOTION,ECCENTRICITY,INCLINATION,RA_OF_ASC_NODE,ARG_OF_PERICENTER,MEAN_ANOMALY,BSTAR,MEAN_MOTION_DOT,MEAN_MOTION_DDOT,TLE_LINE0,TLE_LINE1,TLE_LINE2,SEMIMAJOR_AXIS,PERIOD,APOGEE,PERIGEE,DECAYED
54170.0,STARLINK-5155,PAYLOAD,2023-04-23 02:34:12,15.08846052,9.95e-05,53.2178,44.9123,91.9397,268.1709,3.6988e-05,3.01e-06,0.0,0 STARLINK-5155,1 54170U 22141P   23113.10709331  .00000301  00000-0  36988-4 0  9993,2 54170  53.2178  44.9123 0000995  91.9397 268.1709 15.08846052 27099,6917.862,95.437,540.415,539.039,0.0
54170.0,STARLINK-5155,PAYLOAD,2023-04-24 02:24:59,15.08858884,0.0001745,53.2193,40.4572,133.8149,226.2988,0.0001014,1.327e-05,0.0,0 STARLINK-5155,1 54170U 22141P   23114.10068380  .00001327  00000-0  10140-3 0  9996,2 54170  53.2193  40.4572 0001745 133.8149 226.2988 15.08858884 27247,6917.823,95.436,540.895,538.481,0.0
54170.0,STARLINK-5155,PAYLOAD,2023-04-24 04:00:21,15.0887731,9.39e-05,53.2188,40.1536,99.142,260.9679,0.00016968,2.416e-05,0.0,0 STARLINK-5155,1 54170U 22141P   23114.16691157  .00002416  00000-0  16968-3 0  9990,2 54170  53.2188  40.1536 0000939  99.1420 260.9679 15.08877310 27256,6917.766,95.435,540.281,538.982,0.0
54170.0,STARLINK-5155,PAYLOAD,2023-04-24 18:18:49,15.08867462,7.12e-05,53.2173,37.4773,101.8464,258.2608,0.00032583,4.906e-05,0.0,0 STARLINK-5155,1 54170U 22141P   23114.76307351  .00004906  00000-0  32583-3 0  9993,2 54170  53.2173  37.4773 0000712 101.8464 258.2608 15.08867462 27349,6917.796,95.436,540.154,539.169,0.0
54170.0,STARLINK-5155,PAYLOAD,2023-04-25 05:26:30,15.08874731,6.85e-05,53.2165,35.3952,101.4966,258.6103,0.00035556,5.381e-05,0.0,0 STARLINK-5155,1 54170U 22141P   23115.22674106  .00005381  00000-0  35556-3 0  9991,2 54170  53.2165  35.3952 0000685 101.4966 258.6103 15.08874731 27428,6917.774,95.435,540.113,539.165,0.0
54170.0,STARLINK-5155,PAYLOAD,2023-04-26 05:17:21,15.08810759,0.0001083,53.2172,30.9363,89.8692,270.2425,-0.00055495,-9.102e-05,0.0,0 STARLINK-5155,1 54170U 22141P   23116.22038347 -.00009102  00000-0 -55495-3 0  9994,2 54170  53.2172  30.9363 0001083  89.8692 270.2425 15.08810759 27574,6917.97,95.439,540.584,539.086,0.0
54170.0,STARLINK-5155,PAYLOAD,2023-04-26 18:00:26,15.08818465,0.0001044,53.2173,28.5553,93.6086,266.5025,-0.00038411,-6.392e-05,0.0,0 STARLINK-5155,1 54170U 22141P   23116.75030217 -.00006392  00000-0 -38411-3 0  9997,2 54170  53.2173  28.5553 0001044  93.6086 266.5025 15.08818465 27651,6917.946,95.439,540.533,539.089,0.0
54170.0,STARLINK-5155,PAYLOAD,2023-04-27 03:32:45,15.08830685,0.0001109,53.2173,26.7715,92.8204,267.2915,-0.00019861,-3.446e-05,0.0,0 STARLINK-5155,1 54170U 22141P   23117.14774846 -.00003446  00000-0 -19861-3 0  9999,2 54170  53.2173  26.7715 0001109  92.8204 267.2915 15.08830685 27706,6917.909,95.438,540.541,539.007,0.0
54170.0,STARLINK-5155,PAYLOAD,2023-04-28 03:23:31,15.08841506,0.0001202,53.2174,22.313,84.7476,275.3654,0.00049992,7.678e-05,0.0,0 STARLINK-5155,1 54170U 22141P   23118.14133979  .00007678  00000-0  49992-3 0  9993,2 54170  53.2174  22.3130 0001202  84.7476 275.3654 15.08841506 27855,6917.876,95.437,540.572,538.909,0.0
54170.0,STARLINK-5155,PAYLOAD,2023-04-28 17:42:01,15.08833127,0.0001118,53.2185,19.6379,80.6203,279.4916,0.0001673,2.375e-05,0.0,0 STARLINK-5155,1 54170U 22141P   23118.73751761  .00002375  00000-0  16730-3 0  9996,2 54170  53.2185  19.6379 0001118  80.6203 279.4916 15.08833127 27946,6917.901,95.438,540.54,538.993,0.0
54170.0,STARLINK-5155,PAYLOAD,2023-04-29 03:14:19,15.0884395,0.0001133,53.2178,17.8518,94.8826,265.2296,0.00024427,3.602e-05,0.0,0 STARLINK-5155,1 54170U 22141P   23119.13494930  .00003602  00000-0  24427-3 0  9999,2 54170  53.2178  17.8518 0001133  94.8826 265.2296 15.08843950 28005,6917.868,95.437,540.517,538.95,0.0
54170.0,STARLINK-5155,PAYLOAD,2023-04-30 03:05:05,15.08859537,0.0001141,53.2179,13.3914,93.59,266.5222,9.3756e-05,1.205e-05,0.0,0 STARLINK-5155,1 54170U 22141P   23120.12853805  .00001205  00000-0  93756-4 0  9999,2 54170  53.2179  13.3914 0001141  93.5900 266.5222 15.08859537 28152,6917.821,95.436,540.475,538.896,0.0
54170.0,STARLINK-5155,PAYLOAD,2023-04-30 20:34:20,15.08837718,0.000105,53.2172,10.1198,102.7988,257.3122,-0.00010312,-1.928e-05,0.0,0 STARLINK-5155,1 54170U 22141P   23120.85718740 -.00001928  00000-0 -10312-3 0  9997,2 54170  53.2172  10.1198 0001050 102.7988 257.3122 15.08837718 28268,6917.887,95.438,540.479,539.026,0.0
54170.0,STARLINK-5155,PAYLOAD,2023-05-01 02:55:53,15.08837679,0.0001002,53.2177,8.9293,103.7984,256.3119,-3.3331e-05,-8.18e-06,0.0,0 STARLINK-5155,1 54170U 22141P   23121.12215270 -.00000818  00000-0 -33331-4 0  9992,2 54170  53.2177   8.9293 0001002 103.7984 256.3119 15.08837679 28315,6917.887,95.438,540.446,539.059,0.0
54170.0,STARLINK-5155,PAYLOAD,2023-05-01 22:00:31,15.0884336,0.0001016,53.2178,5.3613,115.9175,244.1922,8.3027e-06,-1.56e-06,0.0,0 STARLINK-5155,1 54170U 22141P   23121.91702912 -.00000156  00000-0  83027-5 0  9995,2 54170  53.2178   5.3613 0001016 115.9175 244.1922 15.08843360 28439,6917.87,95.437,540.438,539.032,0.0
54170.0,STARLINK-5155,PAYLOAD,2023-05-01 23:35:54,15.08847035,9.2e-05,53.2178,5.0638,104.2114,255.898,2.905e-05,1.75e-06,0.0,0 STARLINK-5155,1 54170U 22141P   23121.98326650  .00000175  00000-0  29050-4 0  9998,2 54170  53.2178   5.0638 0000920 104.2114 255.8980 15.08847035 28436,6917.859,95.437,540.36,539.087,0.0
54170.0,STARLINK-5155,PAYLOAD,2023-05-02 20:15:55,15.08842826,9.13e-05,53.2174,1.1993,98.7802,261.3294,0.00019297,2.785e-05,0.0,0 STARLINK-5155,1 54170U 22141P   23122.84438666  .00002785  00000-0  19297-3 0  9995,2 54170  53.2174   1.1993 0000913  98.7802 261.3294 15.08842826 28574,6917.872,95.437,540.368,539.105,0.0
54170.0,STARLINK-5155,PAYLOAD,2023-05-03 01:02:04,15.08847663,9.2e-05,53.2168,0.3073,89.3954,270.7143,0.00025465,3.768e-05,0.0,0 STARLINK-5155,1 54170U 22141P   23123.04310536  .00003768  00000-0  25465-3 0  9999,2 54170  53.2168   0.3073 0000920  89.3954 270.7143 15.08847663 28592,6917.857,95.437,540.358,539.086,0.0
54170.0,STARLINK-5155,PAYLOAD,2023-05-03 08:59:00,15.08840226,0.000116,53.2173,358.8208,67.0765,293.035,0.00010649,1.407e-05,0.0,0 STARLINK-5155,1 54170U 22141P   23123.37431053  .00001407  00000-0  10649-3 0  9999,2 54170  53.2173 358.8208 0001160  67.0765 293.0350 15.08840226 28641,6917.88,95.438,540.547,538.942,0.0
54170.0,STARLINK-5155,PAYLOAD,2023-05-03 21:42:05,15.08839164,0.0001102,53.2167,356.4418,69.4454,290.6657,3.4635e-06,-2.33e-06,0.0,0 STARLINK-5155,1 54170U 22141P   23123.90423151 -.00000233  00000-0  34635-5 0  9998,2 54170  53.2167 356.4418 0001102  69.4454 290.6657 15.08839164 28730,6917.883,95.438,540.51,538.986,0.0
54170.0,STARLINK-5155,PAYLOAD,2023-05-04 08:49:47,15.08844647,0.0001021,53.2172,354.3594,73.4122,286.6983,3.5589e-05,2.79e-06,0.0,0 STARLINK-5155,1 54170U 22141P   23124.36790947  .00000279  00000-0  35589-4 0  9996,2 54170  53.2172 354.3594 0001021  73.4122 286.6983 15.08844647 28802,6917.866,95.437,540.437,539.025,0.0
54170.0,STARLINK-5155,PAYLOAD,2023-05-04 21:32:52,15.0884514,9.51e-05,53.2169,351.9808,74.8173,285.2925,4.4061e-05,4.14e-06,0.0,0 STARLINK-5155,1 54170U 22141P   23124.89782885  .00000414  00000-0  44061-4 0  9992,2 54170  53.2169 351.9808 0000951  74.8173 285.2925 15.08845140 28878,6917.865,95.437,540.388,539.072,0.0
54170.0,STARLINK-5155,PAYLOAD,2023-05-05 21:23:39,15.08843547,9.27e-05,53.2168,347.5202,76.5405,283.5691,0.00015191,2.131e-05,0.0,0 STARLINK-5155,1 54170U 22141P   23125.89142761  .00002131  00000-0  15191-3 0  9995,2 54170  53.2168 347.5202 0000927  76.5405 283.5691 15.08843547 29035,6917.87,95.437,540.376,539.093,0.0
54170.0,STARLINK-5155,PAYLOAD,2023-05-06 00:34:26,15.08813583,0.0001038,53.2166,346.9254,92.3289,267.7822,0.0006246,9.659e-05,0.0,0 STARLINK-5155,1 54170U 22141P   23126.02391768  .00009659  00000-0  62460-3 0  9997,2 54170  53.2166 346.9254 0001038  92.3289 267.7822 15.08813583 29041,6917.961,95.439,540.544,539.108,0.0
54170.0,STARLINK-5155,PAYLOAD,2023-05-06 21:14:26,15.08845184,0.0001005,53.2168,343.0587,87.8704,272.2403,8.0409e-05,9.92e-06,0.0,0 STARLINK-5155,1 54170U 22141P   23126.88502771  .00000992  00000-0  80409-4 0  9994,2 54170  53.2168 343.0587 0001005  87.8704 272.2403 15.08845184 29177,6917.865,95.437,540.425,539.034,0.0
54170.0,STARLINK-5155,PAYLOAD,2023-05-07 19:29:50,15.08838492,9.88e-05,53.217,338.8968,84.417,275.6935,1.0402e-05,-1.22e-06,0.0,0 STARLINK-5155,1 54170U 22141P   23127.81239557 -.00000122  00000-0  10402-4 0  9999,2 54170  53.2170 338.8968 0000988  84.4170 275.6935 15.08838492 29311,6917.885,95.438,540.433,539.067,0.0
54170.0,STARLINK-5155,PAYLOAD,2023-05-07 21:05:14,15.08838375,0.0001,53.2169,338.5993,84.6251,275.4856,1.4351e-05,-5.9e-07,0.0,0 STARLINK-5155,1 54170U 22141P   23127.87863556 -.00000059  00000-0  14351-4 0  9993,2 54170  53.2169 338.5993 0001000  84.6251 275.4856 15.08838375 29334,6917.885,95.438,540.442,539.059,0.0
54170.0,STARLINK-5155,PAYLOAD,2023-05-08 20:56:00,15.08846323,0.0001091,53.2163,334.1398,106.4152,253.696,0.0001303,1.787e-05,0.0,0 STARLINK-5155,1 54170U 22141P   23128.87222931  .00001787  00000-0  13030-3 0  9990,2 54170  53.2163 334.1398 0001091 106.4152 253.6960 15.08846323 29473,6917.861,95.437,540.481,538.971,0.0
54170.0,STARLINK-5155,PAYLOAD,2023-05-09 06:28:19,15.08847714,0.0001037,53.2158,332.3554,86.6661,273.445,7.2424e-05,8.65e-06,0.0,0 STARLINK-5155,1 54170U 22141P   23129.26966869  .00000865  00000-0  72424-4 0  9998,2 54170  53.2158 332.3554 0001037  86.6661 273.4450 15.08847714 29542,6917.857,95.437,540.439,539.004,0.0
54170.0,STARLINK-5155,PAYLOAD,2023-05-10 06:19:07,15.08839703,0.000107,53.2162,327.8962,87.8818,272.2297,0.00014042,1.948e-05,0.0,0 STARLINK-5155,1 54170U 22141P   23130.26327799  .00001948  00000-0  14042-3 0  9997,2 54170  53.2162 327.8962 0001070  87.8818 272.2297 15.08839703 29694,6917.881,95.438,540.487,539.006,0.0
